{
  "norad_id": 63853,
  "name": "STARLINK-34032",
  "history": [
    {
      "epoch": "2026-03-28T17:08:50.564832",
      "apogee_km": 483.9783602564321,
      "perigee_km": 481.9570788060573,
      "latitude_deg": -18.678249345733676,
      "longitude_deg": -86.11048351996578,
      "semi_major_axis_km": 6861.104719531244,
      "eccentricity": 0.0001473,
      "inclination_deg": 43.0028,
      "raan_deg": 330.2811,
      "arg_perigee_deg": 271.523,
      "mean_anomaly_deg": 88.5453,
      "mean_motion_rev_day": 15.27607177
    },
    {
      "epoch": "2026-03-29T00:59:36.699072",
      "apogee_km": 483.90978754522257,
      "perigee_km": 481.90361836647844,
      "latitude_deg": 24.390562340399008,
      "longitude_deg": -54.7258899200242,
      "semi_major_axis_km": 6861.04370295585,
      "eccentricity": 0.0001462,
      "inclination_deg": 43.0016,
      "raan_deg": 328.4336,
      "arg_perigee_deg": 272.8304,
      "mean_anomaly_deg": 87.2381,
      "mean_motion_rev_day": 15.27627555
    }
  ]
}